IRIDIUM 33 DEB          
1 35628U 97051RA  26116.26334082  .00007196  00000+0  12002-2 0  9999
2 35628  86.3537 308.9727 0009743 219.0914 140.9598 14.69830140884218
IRIDIUM 33 DEB          
1 35631U 97051RD  26117.32410347  .00000892  00000+0  23584-3 0  9994
2 35631  86.3652 322.6009 0018139  35.0770 140.8030 14.47730269891586
IRIDIUM 33 DEB          
1 35680U 97051RJ  26117.30302034  .00004588  00000+0  18248-2 0  9995
2 35680  86.1041 321.4198 0146432 206.9728 331.8904 14.22819205626271
IRIDIUM 33 DEB          
1 35744U 97051RX  26115.37399473  .00006786  00000+0  10492-2 0  9999
2 35744  86.3250 264.9309 0022499  98.3382 262.0387 14.72983500892973
IRIDIUM 33 DEB          
1 35797U 97051SF  26117.15624663  .00017901  00000+0  19914-2 0  9996
2 35797  86.3327 267.5083 0011616  52.2469 307.9807 14.87001674893503
IRIDIUM 33 DEB          
1 35806U 97051SQ  26110.32766267  .00002653  00000+0  56203-3 0  9997
2 35806  86.3423 323.9574 0013791   4.5460 355.5872 14.58851578881984
IRIDIUM 33 DEB          
1 35809U 97051ST  26117.18603405  .00013199  00000+0  17850-2 0  9996
2 35809  86.3225 273.4811 0013573 133.2345 227.0011 14.78872127888070
IRIDIUM 33 DEB          
1 35846U 97051SW  26116.11460515  .00001437  00000+0  41612-3 0  9998
2 35846  86.3787   1.4819 0020126  89.3127 271.0380 14.43726660732676
IRIDIUM 33 DEB          
1 35848U 97051SY  26115.82701074  .00010037  00000+0  12548-2 0  9996
2 35848  86.3871 315.6489 0009897  95.4967 264.7385 14.82196896686742
IRIDIUM 33 DEB          
1 35850U 97051TA  26114.19870447  .00008658  00000+0  10800-2 0  9994
2 35850  86.3443 283.7962 0011168  99.1870 261.0617 14.82268518733178
IRIDIUM 33 DEB          
1 35915U 97051TY  26117.18192180  .00016968  00000+0  19908-2 0  9990
2 35915  86.3393 280.8329 0012377  88.6354 271.6287 14.84810844100931
IRIDIUM 33 DEB          
1 35918U 97051UB  26113.02063000  .00002406  00000+0  58233-3 0  9997
2 35918  86.4045  19.4046 0028511  89.8196 284.6167 14.52423262871121
IRIDIUM 33 DEB          
1 35929U 97051UN  26117.12483089  .00046122  00000+0  25391-2 0  9998
2 35929  86.3390 247.9503 0013866 238.2200 121.7690 15.13758950898207
IRIDIUM 33 DEB          
1 36011U 97051US  26114.38430878  .00000913  00000+0  27295-3 0  9998
2 36011  86.3414 338.4586 0019743 139.0347 343.6681 14.41796545664516
IRIDIUM 33 DEB          
1 36012U 97051UT  26116.64892441  .00005378  00000+0  19370-2 0  9992
2 36012  86.4381 253.0212 0219782 191.3095 168.3113 14.20977853673999
IRIDIUM 33 DEB          
1 36028U 97051VK  26116.60689868  .00032090  00000+0  23831-2 0  9990
2 36028  86.3174 242.8537 0014062 270.7826  89.1796 15.02812236891453
