[{"OBJECT_NAME":"IRIDIUM 33 DEB","OBJECT_ID":"1997-051RA","EPOCH":"2026-04-26T06:19:12.646848","MEAN_MOTION":14.6983014,"ECCENTRICITY":0.00097435,"INCLINATION":86.3537,"RA_OF_ASC_NODE":308.9727,"ARG_OF_PERICENTER":219.0914,"MEAN_ANOMALY":140.9598,"EPHEMERIS_TYPE":0,"CLASSIFICATION_TYPE":"U","NORAD_CAT_ID":35628,"ELEMENT_SET_NO":999,"REV_AT_EPOCH":88421,"BSTAR":0.0012002436,"MEAN_MOTION_DOT":7.196e-5,"MEAN_MOTION_DDOT":0},{"OBJECT_NAME":"IRIDIUM 33 DEB","OBJECT_ID":"1997-051RD","EPOCH":"2026-04-27T07:46:42.539808","MEAN_MOTION":14.47730269,"ECCENTRICITY":0.00181391,"INCLINATION":86.3652,"RA_OF_ASC_NODE":322.6009,"ARG_OF_PERICENTER":35.077,"MEAN_ANOMALY":140.803,"EPHEMERIS_TYPE":0,"CLASSIFICATION_TYPE":"U","NORAD_CAT_ID":35631,"ELEMENT_SET_NO":999,"REV_AT_EPOCH":89158,"BSTAR":0.00023583892,"MEAN_MOTION_DOT":8.92e-6,"MEAN_MOTION_DDOT":0},{"OBJECT_NAME":"IRIDIUM 33 DEB","OBJECT_ID":"1997-051RJ","EPOCH":"2026-04-27T07:16:20.957376","MEAN_MOTION":14.22819205,"ECCENTRICITY":0.01464328,"INCLINATION":86.1041,"RA_OF_ASC_NODE":321.4198,"ARG_OF_PERICENTER":206.9728,"MEAN_ANOMALY":331.8904,"EPHEMERIS_TYPE":0,"CLASSIFICATION_TYPE":"U","NORAD_CAT_ID":35680,"ELEMENT_SET_NO":999,"REV_AT_EPOCH":62627,"BSTAR":0.001824774,"MEAN_MOTION_DOT":4.588e-5,"MEAN_MOTION_DDOT":0},{"OBJECT_NAME":"IRIDIUM 33 DEB","OBJECT_ID":"1997-051RX","EPOCH":"2026-04-25T08:58:33.144672","MEAN_MOTION":14.729835,"ECCENTRICITY":0.00224997,"INCLINATION":86.325,"RA_OF_ASC_NODE":264.9309,"ARG_OF_PERICENTER":98.3382,"MEAN_ANOMALY":262.0387,"EPHEMERIS_TYPE":0,"CLASSIFICATION_TYPE":"U","NORAD_CAT_ID":35744,"ELEMENT_SET_NO":999,"REV_AT_EPOCH":89297,"BSTAR":0.0010491992,"MEAN_MOTION_DOT":6.786e-5,"MEAN_MOTION_DDOT":0},{"OBJECT_NAME":"IRIDIUM 33 DEB","OBJECT_ID":"1997-051SF","EPOCH":"2026-04-27T03:44:59.708832","MEAN_MOTION":14.87001674,"ECCENTRICITY":0.00116164,"INCLINATION":86.3327,"RA_OF_ASC_NODE":267.5083,"ARG_OF_PERICENTER":52.2469,"MEAN_ANOMALY":307.9807,"EPHEMERIS_TYPE":0,"CLASSIFICATION_TYPE":"U","NORAD_CAT_ID":35797,"ELEMENT_SET_NO":999,"REV_AT_EPOCH":89350,"BSTAR":0.0019913795,"MEAN_MOTION_DOT":0.00017901,"MEAN_MOTION_DDOT":0},{"OBJECT_NAME":"IRIDIUM 33 DEB","OBJECT_ID":"1997-051SQ","EPOCH":"2026-04-20T07:51:50.054688","MEAN_MOTION":14.58851578,"ECCENTRICITY":0.00137914,"INCLINATION":86.3423,"RA_OF_ASC_NODE":323.9574,"ARG_OF_PERICENTER":4.546,"MEAN_ANOMALY":355.5872,"EPHEMERIS_TYPE":0,"CLASSIFICATION_TYPE":"U","NORAD_CAT_ID":35806,"ELEMENT_SET_NO":999,"REV_AT_EPOCH":88198,"BSTAR":0.00056202912,"MEAN_MOTION_DOT":2.653e-5,"MEAN_MOTION_DDOT":0},{"OBJECT_NAME":"IRIDIUM 33 DEB","OBJECT_ID":"1997-051ST","EPOCH":"2026-04-27T04:27:53.341920","MEAN_MOTION":14.78872127,"ECCENTRICITY":0.00135732,"INCLINATION":86.3225,"RA_OF_ASC_NODE":273.4811,"ARG_OF_PERICENTER":133.2345,"MEAN_ANOMALY":227.0011,"EPHEMERIS_TYPE":0,"CLASSIFICATION_TYPE":"U","NORAD_CAT_ID":35809,"ELEMENT_SET_NO":999,"REV_AT_EPOCH":88807,"BSTAR":0.0017849803,"MEAN_MOTION_DOT":0.00013199,"MEAN_MOTION_DDOT":0},{"OBJECT_NAME":"IRIDIUM 33 DEB","OBJECT_ID":"1997-051SW","EPOCH":"2026-04-26T02:45:01.884960","MEAN_MOTION":14.4372666,"ECCENTRICITY":0.00201268,"INCLINATION":86.3787,"RA_OF_ASC_NODE":1.4819,"ARG_OF_PERICENTER":89.3127,"MEAN_ANOMALY":271.038,"EPHEMERIS_TYPE":0,"CLASSIFICATION_TYPE":"U","NORAD_CAT_ID":35846,"ELEMENT_SET_NO":999,"REV_AT_EPOCH":73267,"BSTAR":0.00041611653,"MEAN_MOTION_DOT":1.437e-5,"MEAN_MOTION_DDOT":0},{"OBJECT_NAME":"IRIDIUM 33 DEB","OBJECT_ID":"1997-051SY","EPOCH":"2026-04-25T19:50:53.727936","MEAN_MOTION":14.82196896,"ECCENTRICITY":0.00098976,"INCLINATION":86.3871,"RA_OF_ASC_NODE":315.6489,"ARG_OF_PERICENTER":95.4967,"MEAN_ANOMALY":264.7385,"EPHEMERIS_TYPE":0,"CLASSIFICATION_TYPE":"U","NORAD_CAT_ID":35848,"ELEMENT_SET_NO":999,"REV_AT_EPOCH":68674,"BSTAR":0.0012547819,"MEAN_MOTION_DOT":0.00010037,"MEAN_MOTION_DDOT":0},{"OBJECT_NAME":"IRIDIUM 33 DEB","OBJECT_ID":"1997-051TA","EPOCH":"2026-04-24T04:46:08.066208","MEAN_MOTION":14.82268518,"ECCENTRICITY":0.00111687,"INCLINATION":86.3443,"RA_OF_ASC_NODE":283.7962,"ARG_OF_PERICENTER":99.187,"MEAN_ANOMALY":261.0617,"EPHEMERIS_TYPE":0,"CLASSIFICATION_TYPE":"U","NORAD_CAT_ID":35850,"ELEMENT_SET_NO":999,"REV_AT_EPOCH":73317,"BSTAR":0.0010799901,"MEAN_MOTION_DOT":8.658e-5,"MEAN_MOTION_DDOT":0},{"OBJECT_NAME":"IRIDIUM 33 DEB","OBJECT_ID":"1997-051TY","EPOCH":"2026-04-27T04:21:58.043520","MEAN_MOTION":14.84810844,"ECCENTRICITY":0.00123776,"INCLINATION":86.3393,"RA_OF_ASC_NODE":280.8329,"ARG_OF_PERICENTER":88.6354,"MEAN_ANOMALY":271.6287,"EPHEMERIS_TYPE":0,"CLASSIFICATION_TYPE":"U","NORAD_CAT_ID":35915,"ELEMENT_SET_NO":999,"REV_AT_EPOCH":10093,"BSTAR":0.0019908226,"MEAN_MOTION_DOT":0.00016968,"MEAN_MOTION_DDOT":0},{"OBJECT_NAME":"IRIDIUM 33 DEB","OBJECT_ID":"1997-051UB","EPOCH":"2026-04-23T00:29:42.432000","MEAN_MOTION":14.52423262,"ECCENTRICITY":0.00285114,"INCLINATION":86.4045,"RA_OF_ASC_NODE":19.4046,"ARG_OF_PERICENTER":89.8196,"MEAN_ANOMALY":284.6167,"EPHEMERIS_TYPE":0,"CLASSIFICATION_TYPE":"U","NORAD_CAT_ID":35918,"ELEMENT_SET_NO":999,"REV_AT_EPOCH":87112,"BSTAR":0.00058233314,"MEAN_MOTION_DOT":2.406e-5,"MEAN_MOTION_DDOT":0},{"OBJECT_NAME":"IRIDIUM 33 DEB","OBJECT_ID":"1997-051UN","EPOCH":"2026-04-27T02:59:45.388896","MEAN_MOTION":15.1375895,"ECCENTRICITY":0.00138662,"INCLINATION":86.339,"RA_OF_ASC_NODE":247.9503,"ARG_OF_PERICENTER":238.22,"MEAN_ANOMALY":121.769,"EPHEMERIS_TYPE":0,"CLASSIFICATION_TYPE":"U","NORAD_CAT_ID":35929,"ELEMENT_SET_NO":999,"REV_AT_EPOCH":89820,"BSTAR":0.0025390909,"MEAN_MOTION_DOT":0.00046122,"MEAN_MOTION_DDOT":0},{"OBJECT_NAME":"IRIDIUM 33 DEB","OBJECT_ID":"1997-051US","EPOCH":"2026-04-24T09:13:24.278592","MEAN_MOTION":14.41796545,"ECCENTRICITY":0.0019743,"INCLINATION":86.3414,"RA_OF_ASC_NODE":338.4586,"ARG_OF_PERICENTER":139.0347,"MEAN_ANOMALY":343.6681,"EPHEMERIS_TYPE":0,"CLASSIFICATION_TYPE":"U","NORAD_CAT_ID":36011,"ELEMENT_SET_NO":999,"REV_AT_EPOCH":66451,"BSTAR":0.00027294716,"MEAN_MOTION_DOT":9.13e-6,"MEAN_MOTION_DDOT":0},{"OBJECT_NAME":"IRIDIUM 33 DEB","OBJECT_ID":"1997-051UT","EPOCH":"2026-04-26T15:34:27.069024","MEAN_MOTION":14.20977853,"ECCENTRICITY":0.02197828,"INCLINATION":86.4381,"RA_OF_ASC_NODE":253.0212,"ARG_OF_PERICENTER":191.3095,"MEAN_ANOMALY":168.3113,"EPHEMERIS_TYPE":0,"CLASSIFICATION_TYPE":"U","NORAD_CAT_ID":36012,"ELEMENT_SET_NO":999,"REV_AT_EPOCH":67399,"BSTAR":0.001936959,"MEAN_MOTION_DOT":5.378e-5,"MEAN_MOTION_DDOT":0},{"OBJECT_NAME":"IRIDIUM 33 DEB","OBJECT_ID":"1997-051VK","EPOCH":"2026-04-26T14:33:56.045952","MEAN_MOTION":15.02812236,"ECCENTRICITY":0.0014062,"INCLINATION":86.3174,"RA_OF_ASC_NODE":242.8537,"ARG_OF_PERICENTER":270.7826,"MEAN_ANOMALY":89.1796,"EPHEMERIS_TYPE":0,"CLASSIFICATION_TYPE":"U","NORAD_CAT_ID":36028,"ELEMENT_SET_NO":999,"REV_AT_EPOCH":89145,"BSTAR":0.0023831,"MEAN_MOTION_DOT":0.0003209,"MEAN_MOTION_DDOT":0}]
